GSAT-16                 
1 40332U 14078A   18002.56346727  .00000080  00000-0  00000+0 0  9990
2 40332   0.0442  97.8856 0002457 342.0143 280.1194  1.00269266 11304
DIRECTV 14              
1 40333U 14078B   18002.53917741 -.00000130  00000-0  00000+0 0  9995
2 40333   0.0207 311.8687 0000618 273.4793 331.6394  1.00270831 11281
YAMAL 401               
1 40345U 14082A   18002.90343579 -.00000234  00000-0  00000-0 0  9992
2 40345   0.0466 172.3223 0000309 174.1621 171.1620  1.00270742 11450
ASTRA 2G                
1 40364U 14089A   18002.63772342  .00000144  00000-0  00000-0 0  9993
2 40364   0.0260   8.7246 0001906   1.9426 349.3280  1.00272965 11016
FENGYUN 2G              
1 40367U 14090A   18002.92340992 -.00000336  00000-0  00000+0 0  9995
2 40367   0.1716 182.3768 0001397 116.2457 240.9783  1.00273217 11084
INMARSAT 5-F2           
1 40384U 15005A   18003.37476593 -.00000293  00000-0  00000+0 0  9990
2 40384   0.0241  23.5750 0000823 264.0810 255.2082  1.00269474 10721
ABS-3A                  
1 40424U 15010A   18002.72394016 -.00000032  00000-0  00000+0 0  9999
2 40424   0.0249  34.5925 0001865 154.6527 170.7514  1.00268164 10452
EUTELSAT 115 WEST B     
1 40425U 15010B   18003.03409029 -.00000031  00000-0  00000+0 0  9995
2 40425   0.0013 207.5951 0000386 256.1081 256.3011  1.00269062 10487
EXPRESS-AM7             
1 40505U 15012A   18002.91157097  .00000144  00000-0  00000-0 0  9992
2 40505   0.0049 356.2129 0002439 264.4793 209.9580  1.00274163 10402
IRNSS-1D                
1 40547U 15018A   18002.21755119 -.00000306  00000-0  00000+0 0  9996
2 40547  28.6932 291.8694 0018673 183.6968 176.3388  1.00268217 10281
THOR 7                  
1 40613U 15022A   18002.71759232 -.00000014  00000-0  00000+0 0  9996
2 40613   0.0056  74.0040 0002910 209.4943  76.4599  1.00270816  9863
TURKMENALEM52E/MONACOSAT
1 40617U 15023A   18002.57166197  .00000098  00000-0  00000-0 0  9999
2 40617   0.0253  69.3038 0002457 226.9235  63.7387  1.00272980  9873
DIRECTV 15              
1 40663U 15026A   18003.00049902 -.00000109  00000-0  00000+0 0  9999
2 40663   0.0209  75.1049 0000322 265.6817  19.2019  1.00269361  9582
SKY MEXICO-1            
1 40664U 15026B   18001.93678582 -.00000237  00000-0  00000+0 0  9994
2 40664   0.0256  20.3672 0002447 268.0824  71.5238  1.00269359  9574
METEOSAT-11 (MSG-4)     
1 40732U 15034A   18002.36070337 -.00000032  00000-0  00000+0 0  9994
2 40732   1.5067 227.6028 0001586  54.6526 305.9205  1.00271527  9088
STAR ONE C4             
1 40733U 15034B   18001.91240710 -.00000268  00000-0  00000+0 0  9990
2 40733   0.0186  23.7055 0002528 285.3383  50.9276  1.00271854  9078
INTELSAT 34 (IS-34)     
1 40874U 15039A   18002.86958325 -.00000292  00000-0  00000+0 0  9991
2 40874   0.0239  17.8140 0000685 205.9921 136.1885  1.00269021  8727
EUTELSAT 8 WEST B       
1 40875U 15039B   18002.73787801 -.00000071  00000-0  00000-0 0  9993
2 40875   0.0620  15.7335 0003612 271.3827  72.8349  1.00272172  8722
GSAT-6                  
1 40880U 15041A   18002.48552444 -.00000170  00000-0  00000+0 0  9996
2 40880   0.0916 275.8564 0010176 355.6226  88.3957  1.00271438  8676
INMARSAT 5-F3           
1 40882U 15042A   18003.21558012  .00000043  00000-0  00000+0 0  9996
2 40882   0.0237  26.3151 0000525 226.1793 107.4999  1.00270134  8607
TJS-1                   
1 40892U 15046A   18002.86441850 -.00000163  00000-0  00000-0 0  9997
2 40892   0.0464 260.7301 0003535  17.2653 290.6204  1.00270201  8596
EXPRESS-AM8             
1 40895U 15048A   18002.89493709 -.00000117  00000-0  00000-0 0  9994
2 40895   0.0575 210.8329 0000280 329.5364 230.3352  1.00272832  8429
SKY MUSTER (NBN1A)      
1 40940U 15054A   18002.32726399 -.00000283  00000-0  00000+0 0  9997
2 40940   0.0176 343.5147 0002081 299.8524  76.6021  1.00270731  8326
ARSAT 2                 
1 40941U 15054B   18002.94018042 -.00000231  00000-0  00000+0 0  9998
2 40941   0.0147  62.3295 0001959 221.0280  76.6105  1.00269894  8369
MORELOS 3               
1 40946U 15056A   18002.94355961 -.00000046  00000-0  00000+0 0  9993
2 40946   6.1602 328.9661 0003323   2.4096 357.7329  1.00271935  8335
APSTAR 9                
1 40982U 15059A   18003.28104895 -.00000273  00000-0  00000+0 0  9994
2 40982   0.0103 206.1794 0002570  78.5346  61.3160  1.00269456  8193
TURKSAT 4B              
1 40984U 15060A   18002.57735539  .00000110  00000-0  00000-0 0  9994
2 40984   0.0246  10.5539 0002295 271.6903  77.7301  1.00269248  8160
CHINASAT 2C (ZX 2C)     
1 41021U 15063A   18002.95661229 -.00000330  00000-0  00000-0 0  9991
2 41021   0.0568 121.7022 0004637 204.3336 224.2974  1.00269389  8056
GSAT-15                 
1 41028U 15065A   18002.45677155 -.00000262  00000-0  00000+0 0  9993
2 41028   0.0499 271.3609 0002656 355.6889  92.9116  1.00271445  7908
BADR-7 (ARABSAT-6B)     
1 41029U 15065B   18002.64372934  .00000139  00000-0  00000+0 0  9994
2 41029   0.0531 246.5793 0005305   7.6349 105.7182  1.00271617  7955
LAOSAT 1                
1 41034U 15067A   18002.35985813 -.00000347  00000-0  00000-0 0  9999
2 41034   0.0423 199.3839 0001396  15.3585 145.2407  1.00273521  7901
TELSTAR 12V             
1 41036U 15068A   18002.75732999 -.00000125  00000-0  00000+0 0  9994
2 41036   0.0173 347.3800 0002455 302.1947  70.3895  1.00270140  7772
CHINASAT 1C (ZX 1C)     
1 41103U 15073A   18002.95573041 -.00000156  00000-0  00000-0 0  9993
2 41103   0.0536 137.9021 0003680 139.7953 250.3607  1.00270882  7718
ELEKTRO-L 2             
1 41105U 15074A   18002.87823765 -.00000103  00000-0  00000-0 0  9990
2 41105   0.0243 291.3610 0001282 313.7362 249.5305  1.00272343  7560
COSMOS 2513             
1 41121U 15075A   18003.53453991 -.00000146  00000-0  00000+0 0  9999
2 41121   0.1085  99.3605 0002493 187.0391  89.3573  1.00270351  7656
EXPRESS-AMU1            
1 41191U 15082A   18003.22073758  .00000148  00000-0  00000+0 0  9990
2 41191   0.0030  21.5365 0002312 233.0518 323.7397  1.00270695  7554
GAOFEN 4                
1 41194U 15083A   18003.21794477 -.00000341  00000-0  00000+0 0  9997
2 41194   0.0938  92.7232 0004465 147.7083  46.4914  1.00266970  7539
BELINTERSAT-1           
1 41238U 16001A   18003.15464495  .00000100  00000-0  00000+0 0  9996
2 41238   0.0484  99.9145 0001322 142.8292 327.1150  1.00270686  7319
IRNSS-1E                
1 41241U 16003A   18001.71697338 -.00000302  00000-0  00000-0 0  9992
2 41241  29.1115 111.2680 0021302 180.1228 179.7854  1.00274280  7127
INTELSAT 29E (IS-29E)   
1 41308U 16004A   18002.85435890 -.00000288  00000-0  00000+0 0  9998
2 41308   0.0190  39.5830 0001903 254.9948  65.4024  1.00268025  7204
EUTELSAT 9B             
1 41310U 16005A   18002.69074494  .00000056  00000-0  00000+0 0  9995
2 41310   0.0637  90.2728 0006082 199.8352  69.8170  1.00272581  7158
SES-9                   
1 41380U 16013A   18002.41581050 -.00000350  00000-0  00000-0 0  9991
2 41380   0.0290 308.2047 0001098 358.3049  53.4724  1.00269084  6532
EUTELSAT 65 WEST A      
1 41382U 16014A   18001.89911609 -.00000279  00000-0  00000+0 0  9991
2 41382   0.0445  13.6316 0002296 275.4432  70.8944  1.00272291  6685
IRNSS-1F                
1 41384U 16015A   18002.34959568  .00000158  00000-0  00000-0 0  9997
2 41384   3.7488 259.8803 0017435 173.8476 186.5698  1.00266848  6737
IRNSS-1G                
1 41469U 16027A   18003.08217907 -.00000338  00000-0  00000+0 0  9990
2 41469   3.8166 261.3903 0003846 180.4544 179.9216  1.00275970  6249
JCSAT 2B                
1 41471U 16028A   18003.28644119 -.00000173  00000-0  00000+0 0  9992
2 41471   0.0181  20.5826 0002375 268.8248  70.5555  1.00270986  6137
THAICOM 8               
1 41552U 16031A   18002.49836778 -.00000126  00000-0  00000+0 0  9990
2 41552   0.0535  35.0367 0004689 293.2451  31.6815  1.00271098  5826
INTELSAT 31 (IS-31)     
1 41581U 16035A   18002.97911419 -.00000157  00000-0  00000+0 0  9999
2 41581   0.0345 251.0323 0002439 322.3962 146.5459  1.00271106  5742
BEIDOU G7               
1 41586U 16037A   18002.31533402 -.00000252  00000-0  00000+0 0  9992
2 41586   0.9494 330.8360 0004106 300.9464  88.1659  1.00268312  5838
ABS-2A (MONGOLSAT-1)    
1 41588U 16038A   18002.50868790 -.00000089  00000-0  00000+0 0  9995
2 41588   0.0191  73.0037 0001653 135.4540 151.5250  1.00268466  5755
EUTELSAT 117 WEST B     
1 41589U 16038B   18003.03997602 -.00000018  00000-0  00000+0 0  9992
2 41589   0.0441 196.0506 0000216 279.7089 244.2323  1.00273698  5759
BRISAT                  
1 41591U 16039A   18003.29613240 -.00000204  00000-0  00000+0 0  9994
2 41591   0.0208  13.9234 0002407 271.5543  74.4958  1.00269217  5699
ECHOSTAR 18             
1 41592U 16039B   18002.88581888 -.00000288  00000-0  00000-0 0  9994
2 41592   0.0228   8.8330 0002390 284.9355  66.2065  1.00267068  5670
TIANTONG-1 1            
1 41725U 16048A   18003.24316813 -.00000319  00000-0  00000+0 0  9991
2 41725   4.3032 325.7917 0007270 356.2092 329.7197  1.00268252  5313
JCSAT-16                
1 41729U 16050A   18002.26684275 -.00000096  00000-0  00000+0 0  9991
2 41729   0.0220  70.2688 0002156 222.7161  66.9848  1.00269527  5115
INTELSAT 36 (IS-36)     
1 41747U 16053A   18002.52603425 -.00000029  00000-0  00000+0 0  9997
2 41747   0.0105   4.9180 0002478 305.1532  49.8985  1.00271215  5011
INTELSAT 33E (IS-33E)   
1 41748U 16053B   18002.54958744  .00000044  00000-0  00000+0 0  9993
2 41748   0.0131  15.9175 0002309 264.8431  79.2048  1.00271475  5261
INSAT-3DR               
1 41752U 16054A   18003.50784685 -.00000084  00000-0  00000+0 0  9992
2 41752   0.0647 270.6194 0009603   7.5546  81.7045  1.00269947  4863
GSAT-18                 
1 41793U 16060A   18002.51098093 -.00000082  00000-0  00000+0 0  9993
2 41793   0.0710  95.9973 0002951 345.4712 278.5567  1.00271731  4588
